{
  "norad_id": 66731,
  "name": "FLOCK 4H-28",
  "history": [
    {
      "epoch": "2026-03-28T17:59:59.459136",
      "apogee_km": 511.91907447251106,
      "perigee_km": 507.8194708991341,
      "latitude_deg": 35.654216800495476,
      "longitude_deg": -154.90060096001253,
      "semi_major_axis_km": 6888.006272685822,
      "eccentricity": 0.00029759,
      "inclination_deg": 97.4225,
      "raan_deg": 162.5729,
      "arg_perigee_deg": 298.213,
      "mean_anomaly_deg": 61.8804,
      "mean_motion_rev_day": 15.18666668
    },
    {
      "epoch": "2026-03-29T05:04:09.110784",
      "apogee_km": 511.87284460511455,
      "perigee_km": 507.7965429567348,
      "latitude_deg": 84.92658680717305,
      "longitude_deg": -110.62321023992263,
      "semi_major_axis_km": 6887.971693780924,
      "eccentricity": 0.0002959,
      "inclination_deg": 97.4225,
      "raan_deg": 163.0258,
      "arg_perigee_deg": 296.0749,
      "mean_anomaly_deg": 64.0181,
      "mean_motion_rev_day": 15.18678104
    }
  ]
}